CCSDS_OMM_VERS = 2.0
CREATION_DATE  = 
ORIGINATOR     = 

OBJECT_NAME    = 2025-292A
OBJECT_ID      = 2025-292A
CENTER_NAME    = EARTH
REF_FRAME      = TEME
TIME_SYSTEM    = UTC
MEAN_ELEMENT_THEORY = SGP/SGP4

EPOCH          = 2026-01-08T12:59:38.914368
MEAN_MOTION    = 15.04788399
ECCENTRICITY   = .00155296
INCLINATION    = 97.6495
RA_OF_ASC_NODE = 85.8298
ARG_OF_PERICENTER = 176.4313
MEAN_ANOMALY   = 183.7027

EPHEMERIS_TYPE = 0
CLASSIFICATION_TYPE = U
NORAD_CAT_ID   = 66993
ELEMENT_SET_NO = 999
REV_AT_EPOCH   = 442
BSTAR          = .37856667E-3
MEAN_MOTION_DOT = .5294E-4
MEAN_MOTION_DDOT = 0

CCSDS_OMM_VERS = 2.0
CREATION_DATE  = 
ORIGINATOR     = 

OBJECT_NAME    = THE ARAB SATELLITE 813
OBJECT_ID      = 2025-292B
CENTER_NAME    = EARTH
REF_FRAME      = TEME
TIME_SYSTEM    = UTC
MEAN_ELEMENT_THEORY = SGP/SGP4

EPOCH          = 2026-01-08T12:58:09.715872
MEAN_MOTION    = 15.04862281
ECCENTRICITY   = .00153344
INCLINATION    = 97.6504
RA_OF_ASC_NODE = 85.8346
ARG_OF_PERICENTER = 176.7811
MEAN_ANOMALY   = 183.3516

EPHEMERIS_TYPE = 0
CLASSIFICATION_TYPE = U
NORAD_CAT_ID   = 66994
ELEMENT_SET_NO = 999
REV_AT_EPOCH   = 442
BSTAR          = .43711332E-3
MEAN_MOTION_DOT = .6135E-4
MEAN_MOTION_DDOT = 0

CCSDS_OMM_VERS = 2.0
CREATION_DATE  = 
ORIGINATOR     = 

OBJECT_NAME    = 2025-292C
OBJECT_ID      = 2025-292C
CENTER_NAME    = EARTH
REF_FRAME      = TEME
TIME_SYSTEM    = UTC
MEAN_ELEMENT_THEORY = SGP/SGP4

EPOCH          = 2026-01-08T12:59:08.876544
MEAN_MOTION    = 15.04782766
ECCENTRICITY   = .00155495
INCLINATION    = 97.6494
RA_OF_ASC_NODE = 85.8303
ARG_OF_PERICENTER = 175.0281
MEAN_ANOMALY   = 185.1102

EPHEMERIS_TYPE = 0
CLASSIFICATION_TYPE = U
NORAD_CAT_ID   = 66995
ELEMENT_SET_NO = 999
REV_AT_EPOCH   = 442
BSTAR          = .4814887E-3
MEAN_MOTION_DOT = .6751E-4
MEAN_MOTION_DDOT = 0

CCSDS_OMM_VERS = 2.0
CREATION_DATE  = 
ORIGINATOR     = 

OBJECT_NAME    = 2025-292D
OBJECT_ID      = 2025-292D
CENTER_NAME    = EARTH
REF_FRAME      = TEME
TIME_SYSTEM    = UTC
MEAN_ELEMENT_THEORY = SGP/SGP4

EPOCH          = 2026-01-08T12:57:35.771904
MEAN_MOTION    = 15.04812783
ECCENTRICITY   = .00147022
INCLINATION    = 97.6491
RA_OF_ASC_NODE = 85.8300
ARG_OF_PERICENTER = 178.6068
MEAN_ANOMALY   = 181.5202

EPHEMERIS_TYPE = 0
CLASSIFICATION_TYPE = U
NORAD_CAT_ID   = 66996
ELEMENT_SET_NO = 999
REV_AT_EPOCH   = 442
BSTAR          = .30835186E-3
MEAN_MOTION_DOT = .4302E-4
MEAN_MOTION_DDOT = 0

CCSDS_OMM_VERS = 2.0
CREATION_DATE  = 
ORIGINATOR     = 

OBJECT_NAME    = 2025-292E
OBJECT_ID      = 2025-292E
CENTER_NAME    = EARTH
REF_FRAME      = TEME
TIME_SYSTEM    = UTC
MEAN_ELEMENT_THEORY = SGP/SGP4

EPOCH          = 2026-01-08T12:54:29.589408
MEAN_MOTION    = 15.04971209
ECCENTRICITY   = .00150164
INCLINATION    = 97.6511
RA_OF_ASC_NODE = 85.8406
ARG_OF_PERICENTER = 179.8701
MEAN_ANOMALY   = 180.2532

EPHEMERIS_TYPE = 0
CLASSIFICATION_TYPE = U
NORAD_CAT_ID   = 66997
ELEMENT_SET_NO = 999
REV_AT_EPOCH   = 441
BSTAR          = .36555114E-3
MEAN_MOTION_DOT = .5134E-4
MEAN_MOTION_DDOT = 0

CCSDS_OMM_VERS = 2.0
CREATION_DATE  = 
ORIGINATOR     = 

OBJECT_NAME    = 2025-292F
OBJECT_ID      = 2025-292F
CENTER_NAME    = EARTH
REF_FRAME      = TEME
TIME_SYSTEM    = UTC
MEAN_ELEMENT_THEORY = SGP/SGP4

EPOCH          = 2026-01-08T12:49:15.836448
MEAN_MOTION    = 15.05206029
ECCENTRICITY   = .00161814
INCLINATION    = 97.6528
RA_OF_ASC_NODE = 85.8526
ARG_OF_PERICENTER = 180.6127
MEAN_ANOMALY   = 179.5082

EPHEMERIS_TYPE = 0
CLASSIFICATION_TYPE = U
NORAD_CAT_ID   = 66998
ELEMENT_SET_NO = 999
REV_AT_EPOCH   = 442
BSTAR          = .46650924E-3
MEAN_MOTION_DOT = .6615E-4
MEAN_MOTION_DDOT = 0

CCSDS_OMM_VERS = 2.0
CREATION_DATE  = 
ORIGINATOR     = 

OBJECT_NAME    = 2025-292G
OBJECT_ID      = 2025-292G
CENTER_NAME    = EARTH
REF_FRAME      = TEME
TIME_SYSTEM    = UTC
MEAN_ELEMENT_THEORY = SGP/SGP4

EPOCH          = 2026-01-08T12:47:27.674880
MEAN_MOTION    = 15.05271081
ECCENTRICITY   = .00156315
INCLINATION    = 97.6537
RA_OF_ASC_NODE = 85.8576
ARG_OF_PERICENTER = 182.3458
MEAN_ANOMALY   = 177.7698

EPHEMERIS_TYPE = 0
CLASSIFICATION_TYPE = U
NORAD_CAT_ID   = 66999
ELEMENT_SET_NO = 999
REV_AT_EPOCH   = 442
BSTAR          = .46870365E-3
MEAN_MOTION_DOT = .6657E-4
MEAN_MOTION_DDOT = 0

CCSDS_OMM_VERS = 2.0
CREATION_DATE  = 
ORIGINATOR     = 

OBJECT_NAME    = 2025-292H
OBJECT_ID      = 2025-292H
CENTER_NAME    = EARTH
REF_FRAME      = TEME
TIME_SYSTEM    = UTC
MEAN_ELEMENT_THEORY = SGP/SGP4

EPOCH          = 2026-01-08T11:10:46.626816
MEAN_MOTION    = 15.05352877
ECCENTRICITY   = .00154937
INCLINATION    = 97.6551
RA_OF_ASC_NODE = 85.7973
ARG_OF_PERICENTER = 182.6070
MEAN_ANOMALY   = 177.5079

EPHEMERIS_TYPE = 0
CLASSIFICATION_TYPE = U
NORAD_CAT_ID   = 67000
ELEMENT_SET_NO = 999
REV_AT_EPOCH   = 428
BSTAR          = .54270634E-3
MEAN_MOTION_DOT = .7735E-4
MEAN_MOTION_DDOT = 0

CCSDS_OMM_VERS = 2.0
CREATION_DATE  = 
ORIGINATOR     = 

OBJECT_NAME    = 2025-292J
OBJECT_ID      = 2025-292J
CENTER_NAME    = EARTH
REF_FRAME      = TEME
TIME_SYSTEM    = UTC
MEAN_ELEMENT_THEORY = SGP/SGP4

EPOCH          = 2026-01-08T05:05:02.651136
MEAN_MOTION    = 15.04691378
ECCENTRICITY   = .0015885
INCLINATION    = 97.6528
RA_OF_ASC_NODE = 85.5089
ARG_OF_PERICENTER = 174.8112
MEAN_ANOMALY   = 185.3282

EPHEMERIS_TYPE = 0
CLASSIFICATION_TYPE = U
NORAD_CAT_ID   = 67001
ELEMENT_SET_NO = 999
REV_AT_EPOCH   = 437
BSTAR          = .4852E-3
MEAN_MOTION_DOT = .6787E-4
MEAN_MOTION_DDOT = 0

CCSDS_OMM_VERS = 2.0
CREATION_DATE  = 
ORIGINATOR     = 

OBJECT_NAME    = ZK-1A R/B
OBJECT_ID      = 2025-292K
CENTER_NAME    = EARTH
REF_FRAME      = TEME
TIME_SYSTEM    = UTC
MEAN_ELEMENT_THEORY = SGP/SGP4

EPOCH          = 2026-01-08T05:33:26.582688
MEAN_MOTION    = 15.63907211
ECCENTRICITY   = .0189183
INCLINATION    = 97.7161
RA_OF_ASC_NODE = 88.2985
ARG_OF_PERICENTER = 267.8171
MEAN_ANOMALY   = 90.1415

EPHEMERIS_TYPE = 0
CLASSIFICATION_TYPE = U
NORAD_CAT_ID   = 67002
ELEMENT_SET_NO = 999
REV_AT_EPOCH   = 452
BSTAR          = .72764E-3
MEAN_MOTION_DOT = .178555E-2
MEAN_MOTION_DDOT = .11171E-4

CCSDS_OMM_VERS = 2.0
CREATION_DATE  = 
ORIGINATOR     = 

OBJECT_NAME    = STARLINK-35660
OBJECT_ID      = 2025-293A
CENTER_NAME    = EARTH
REF_FRAME      = TEME
TIME_SYSTEM    = UTC
MEAN_ELEMENT_THEORY = SGP/SGP4

EPOCH          = 2026-01-08T01:21:12.176352
MEAN_MOTION    = 15.52559889
ECCENTRICITY   = .00035333
INCLINATION    = 69.9994
RA_OF_ASC_NODE = 249.4115
ARG_OF_PERICENTER = 269.2756
MEAN_ANOMALY   = 90.8026

EPHEMERIS_TYPE = 0
CLASSIFICATION_TYPE = U
NORAD_CAT_ID   = 67003
ELEMENT_SET_NO = 999
REV_AT_EPOCH   = 575
BSTAR          = .13508522E-2
MEAN_MOTION_DOT = .83946E-3
MEAN_MOTION_DDOT = 0

CCSDS_OMM_VERS = 2.0
CREATION_DATE  = 
ORIGINATOR     = 

OBJECT_NAME    = STARLINK-35913
OBJECT_ID      = 2025-293B
CENTER_NAME    = EARTH
REF_FRAME      = TEME
TIME_SYSTEM    = UTC
MEAN_ELEMENT_THEORY = SGP/SGP4

EPOCH          = 2026-01-08T15:15:13.950432
MEAN_MOTION    = 15.53514284
ECCENTRICITY   = .00076591
INCLINATION    = 69.9996
RA_OF_ASC_NODE = 247.8216
ARG_OF_PERICENTER = 271.4403
MEAN_ANOMALY   = 88.5907

EPHEMERIS_TYPE = 0
CLASSIFICATION_TYPE = U
NORAD_CAT_ID   = 67004
ELEMENT_SET_NO = 999
REV_AT_EPOCH   = 584
BSTAR          = .19169481E-2
MEAN_MOTION_DOT = .1241E-2
MEAN_MOTION_DDOT = 0

