2025-292A               
1 66993U 25292A   26008.54142262  .00005294  00000+0  37857-3 0  9997
2 66993  97.6495  85.8298 0015529 176.4313 183.7027 15.04788399  4424
THE ARAB SATELLITE 813  
1 66994U 25292B   26008.54039023  .00006135  00000+0  43711-3 0  9999
2 66994  97.6504  85.8346 0015334 176.7811 183.3516 15.04862281  4422
2025-292C               
1 66995U 25292C   26008.54107496  .00006751  00000+0  48149-3 0  9994
2 66995  97.6494  85.8303 0015549 175.0281 185.1102 15.04782766  4425
2025-292D               
1 66996U 25292D   26008.53999736  .00004302  00000+0  30835-3 0  9993
2 66996  97.6491  85.8300 0014702 178.6068 181.5202 15.04812783  4426
2025-292E               
1 66997U 25292E   26008.53784247  .00005134  00000+0  36555-3 0  9992
2 66997  97.6511  85.8406 0015016 179.8701 180.2532 15.04971209  4413
2025-292F               
1 66998U 25292F   26008.53421107  .00006615  00000+0  46651-3 0  9999
2 66998  97.6528  85.8526 0016181 180.6127 179.5082 15.05206029  4425
2025-292G               
1 66999U 25292G   26008.53295920  .00006657  00000+0  46870-3 0  9991
2 66999  97.6537  85.8576 0015631 182.3458 177.7698 15.05271081  4429
2025-292H               
1 67000U 25292H   26008.46581744  .00007735  00000+0  54271-3 0  9991
2 67000  97.6551  85.7973 0015493 182.6070 177.5079 15.05352877  4286
2025-292J               
1 67001U 25292J   26008.21183624  .00006787  00000+0  48520-3 0  9996
2 67001  97.6528  85.5089 0015885 174.8112 185.3282 15.04691378  4376
ZK-1A R/B               
1 67002U 25292K   26008.23155767  .00178555  11171-4  72764-3 0  9992
2 67002  97.7161  88.2985 0189183 267.8171  90.1415 15.63907211  4526
STARLINK-35660          
1 67003U 25293A   26008.05639093  .00083946  00000+0  13509-2 0  9997
2 67003  69.9994 249.4115 0003533 269.2756  90.8026 15.52559889  5750
STARLINK-35913          
1 67004U 25293B   26008.63557813  .00124100  00000+0  19169-2 0  9997
2 67004  69.9996 247.8216 0007659 271.4403  88.5907 15.53514284  5847
